[
    {
        "CCSDS_OMM_VERS": "3.0",
        "COMMENT": "GENERATED VIA SPACE-TRACK.ORG API",
        "CREATION_DATE": "2025-02-28T19:05:01",
        "ORIGINATOR": "18 SPCS",
        "OBJECT_NAME": "GALILEO 19 (2C5)",
        "OBJECT_ID": "2017-079A",
        "CENTER_NAME": "EARTH",
        "REF_FRAME": "TEME",
        "TIME_SYSTEM": "UTC",
        "MEAN_ELEMENT_THEORY": "SGP4",
        "EPOCH": "2025-02-28T01:22:16.638528",
        "MEAN_MOTION": "1.70474294",
        "ECCENTRICITY": "0.00007090",
        "INCLINATION": "55.2376",
        "RA_OF_ASC_NODE": "234.5510",
        "ARG_OF_PERICENTER": "39.2891",
        "MEAN_ANOMALY": "320.6855",
        "EPHEMERIS_TYPE": "0",
        "CLASSIFICATION_TYPE": "U",
        "NORAD_CAT_ID": "43055",
        "ELEMENT_SET_NO": "999",
        "REV_AT_EPOCH": "4490",
        "BSTAR": "0.00000000000000",
        "MEAN_MOTION_DOT": "0.00000056",
        "MEAN_MOTION_DDOT": "0.0000000000000",
        "SEMIMAJOR_AXIS": "29600.286",
        "PERIOD": "844.702",
        "APOAPSIS": "23224.250",
        "PERIAPSIS": "23220.052",
        "OBJECT_TYPE": "PAYLOAD",
        "RCS_SIZE": "LARGE",
        "COUNTRY_CODE": "ESA",
        "LAUNCH_DATE": "2017-12-12",
        "SITE": "FRGUI",
        "DECAY_DATE": null,
        "FILE": "4655208",
        "GP_ID": "281920474",
        "TLE_LINE0": "0 GALILEO 19 (2C5)",
        "TLE_LINE1": "1 43055U 17079A   25059.05713702  .00000056  00000-0  00000-0 0  9998",
        "TLE_LINE2": "2 43055  55.2376 234.5510 0000709  39.2891 320.6855  1.70474294 44909"
    }
]